satname,norad_id,inclination_deg,eccentricity,mean_motion_rev_per_day,perigee_km,apogee_km,l1,l2
STARLINK-1365,45590,53.055,0.0001086,15.06397297,546.4677485032917,547.9719360094286,1 45590U 20025BM  25356.54348980  .00000474  00000+0  50684-4 0  9995,2 45590  53.0550  92.9387 0001086  85.1375 274.9738 15.06397297313472
STARLINK-1443,45660,53.0554,0.000126,15.06402313,546.331875910395,548.0770619605673,1 45660U 20035D   25356.32970551  .00001490  00000+0  11891-3 0  9990,2 45660  53.0554  53.9025 0001260  91.8569 268.2564 15.06402313307071
STARLINK-1446,45663,53.0273,0.0004406,15.38796329,446.65921296391207,452.67587432777236,1 45663U 20035G   25356.31149816  .00084154  00000+0  21471-2 0  9996,2 45663  53.0273   5.9143 0004406  36.7677 323.3627 15.38796329307748
STARLINK-1448,45665,53.0567,0.0001235,15.06401358,546.3521158341027,548.0626758998815,1 45665U 20035J   25356.46608361  .00002414  00000+0  18088-3 0  9999,2 45665  53.0567  53.2880 0001235  86.3013 273.8117 15.06401358307082
STARLINK-1451,45668,53.0569,0.000103,15.06409094,546.4703782475826,547.896994308956,1 45668U 20035M   25355.47460894 -.00001211  00000+0 -62402-4 0  9995,2 45668  53.0569  58.0579 0001030  83.2113 276.8994 15.06409094306940
STARLINK-1452,45669,53.0371,0.0003413,15.32434519,466.21453221080446,470.8880816491155,1 45669U 20035N   25356.50897997  .00057949  00000+0  18221-2 0  9994,2 45669  53.0371  25.8636 0003413 176.9672 183.1349 15.32434519307488
STARLINK-1453,45670,53.0541,0.0001055,15.36170257,456.72556269803135,458.16787086227214,1 45670U 20035P   25356.91670139  .00063547  00000+0  17730-2 0  9993,2 45670  53.0541  18.5505 0001055  93.8337  75.8007 15.36170257  5852
STARLINK-1454,45671,53.0552,0.0001537,15.06404749,546.1325791392392,548.2614268117541,1 45671U 20035Q   25356.55823814  .00002891  00000+0  21284-3 0  9999,2 45671  53.0552  52.8797 0001537  81.4056 278.7107 15.06404749307094
STARLINK-1456,45673,53.0549,0.0001118,15.28185313,480.47029143469626,482.00404749898917,1 45673U 20035S   25356.91670139  .01894463  00000+0  61752-1 0  9998,2 45673  53.0549  50.3842 0001118 101.3724  60.1990 15.28185313  5786
STARLINK-1457,45674,53.0513,0.0008348,15.49677351,411.9960425377567,423.34232053845244,1 45674U 20035T   25356.77613707  .00098971  00000+0  17402-2 0  9994,2 45674  53.0513  39.8697 0008348   5.9856 354.1250 15.49677351307281
STARLINK-1458,45675,53.0542,0.0001484,15.06407622,546.1604794452041,548.2159159638841,1 45675U 20035U   25356.43660218  .00006047  00000+0  42440-3 0  9991,2 45675  53.0542  53.4187 0001484  91.5600 268.5559 15.06407622307052
STARLINK-1460,45676,53.0566,0.0001423,15.06403432,546.2155637695441,548.1865149755495,1 45676U 20035V   25356.53980884  .00001784  00000+0  13864-3 0  9998,2 45676  53.0566  52.9553 0001423  78.6518 281.4631 15.06403432307068
STARLINK-1392,45677,53.0559,0.0001155,15.06401304,546.4076840721318,548.007438665808,1 45677U 20035W   25356.48451966  .00003703  00000+0  26733-3 0  9999,2 45677  53.0559  53.2089 0001155  85.6798 274.4323 15.06401304307098
STARLINK-1394,45679,53.0557,0.0001341,15.27621203,482.0056536970069,483.8457907191023,1 45679U 20035Y   25356.91670139  .02016578  00000+0  66443-1 0  9990,2 45679  53.0557  40.4677 0001341  75.4154 175.7268 15.27621203  5786
STARLINK-1402,45685,53.0542,0.0004972,15.3209153,466.16843176069597,472.97779469729085,1 45685U 20035AE  25356.81098307  .00070200  00000+0  22246-2 0  9991,2 45685  53.0542  25.9998 0004972 346.8697  13.2172 15.32091530307517
STARLINK-1404,45686,53.056,0.0002511,15.06431477,545.3761563475518,548.8540179457168,1 45686U 20035AF  25356.10944707  .00005535  00000+0  38987-3 0  9997,2 45686  53.0560  44.8946 0002511  81.5060 278.6213 15.06431477307180
STARLINK-1413,45689,53.0563,0.0001309,15.06401286,546.3010889259949,548.1141441466043,1 45689U 20035AJ  25356.45963740  .00001493  00000+0  11909-3 0  9990,2 45689  53.0563  43.3152 0001309  93.9045 266.2094 15.06401286307144
STARLINK-1417,45693,53.0534,0.0003244,15.08052008,539.9080719062749,544.3979560673488,1 45693U 20035AN  25356.43667467  .00017786  00000+0  11571-2 0  9996,2 45693  53.0534  43.2191 0003244  10.5861 349.5196 15.08052008307223
STARLINK-1420,45695,53.0557,0.0001392,15.06405475,546.2307717191607,548.1587840861293,1 45695U 20035AQ  25356.78857860  .00002278  00000+0  17172-3 0  9998,2 45695  53.0557  21.8316 0001392  92.0739 268.0409 15.06405475307569
STARLINK-1422,45696,53.0542,0.0003707,15.06403525,544.6335316365039,549.7679770475715,1 45696U 20035AR  25356.40066738  .00004941  00000+0  35037-3 0  9993,2 45696  53.0542  43.5849 0003707  98.4658 261.6752 15.06403525307214
STARLINK-1351,45697,53.0545,0.0001445,15.08478093,539.8500214422411,541.8496086317873,1 45697U 20035AS  25356.91670139  .01112765  00000+0  65038-1 0  9993,2 45697  53.0545  21.2531 0001445 106.5546 311.0225 15.08478093  5835
STARLINK-1398,45699,53.049,0.0005307,15.61859389,378.69848619085315,385.8739994207672,1 45699U 20035AU  25356.91670139  .00179937  00000+0  19950-2 0  9991,2 45699  53.0490 322.3875 0005307  55.3663 272.8077 15.61859389  5989
STARLINK-1400,45700,53.0557,0.0001597,15.06407342,546.0830812859922,548.2950304282322,1 45700U 20035AV  25356.81532543  .00003170  00000+0  23155-3 0  9997,2 45700  53.0557  21.7202 0001597  87.2437 272.8735 15.06407342307567
STARLINK-1403,45701,53.0549,0.0001553,15.0640075,546.1337530231813,548.2847655713194,1 45701U 20035AW  25356.77847172  .00002110  00000+0  16052-3 0  9991,2 45701  53.0549  21.8875 0001553  95.3063 264.8103 15.06400750307558
STARLINK-1407,45703,53.0418,0.0006879,15.45804408,424.33286326994676,433.6981436842307,1 45703U 20035AY  25356.20513037  .00023696  00000+0  48814-3 0  9994,2 45703  53.0418 329.2395 0006879 217.2438 142.8092 15.45804408308255
STARLINK-1411,45706,53.0517,0.0001613,15.49633408,416.7014692547873,418.89383777401235,1 45706U 20035BB  25356.58478302  .00095463  00000+0  16841-2 0  9998,2 45706  53.0517 354.4363 0001613  69.9570 290.1612 15.49633408307925
STARLINK-1423,45710,53.0548,0.0001312,15.06401723,546.297672158501,548.1148822344376,1 45710U 20035BF  25356.80427279  .00001958  00000+0  15027-3 0  9997,2 45710  53.0548  21.7701 0001312  91.3163 268.7976 15.06401723307567
STARLINK-1433,45711,53.0564,0.0001476,15.06402291,546.1823559513741,548.2267167729078,1 45711U 20035BG  25356.78584380  .00002499  00000+0  18658-3 0  9996,2 45711  53.0564  21.8549 0001476  94.1471 265.9687 15.06402291307559
STARLINK-1434,45712,53.0487,0.0001745,15.19064337,507.4653528552808,509.86884748623925,1 45712U 20035BH  25356.44080087  .00036205  00000+0  17123-2 0  9992,2 45712  53.0487  15.6036 0001745 288.7875  71.2930 15.19064337307620
STARLINK-1465,45731,53.0542,0.0001532,15.06404212,546.1376873736008,548.2596102163916,1 45731U 20038B   25356.81901201  .00001857  00000+0  14353-3 0  9995,2 45731  53.0542 221.7023 0001532  91.8181 268.2983 15.06404212304603
STARLINK-1471,45735,53.0491,0.0001348,15.43469463,434.9604386817364,436.79749738671853,1 45735U 20038F   25356.59035097  .00021882  00000+0  48895-3 0  9993,2 45735  53.0491 149.8015 0001348  94.0725 266.0434 15.43469463305603
STARLINK-1474,45738,53.0325,0.0001965,15.78090189,334.53274331305965,337.1713410066277,1 45738U 20038J   25356.46111132  .00129344  00000+0  73625-3 0  9998,2 45738  53.0325  96.3446 0001965  36.0170 324.0982 15.78090189306338
STARLINK-1480,45741,53.0532,0.000159,15.22633109,496.80866708363646,498.9952474720503,1 45741U 20038M   25356.91670139  .01291500  00000+0  49966-1 0  9993,2 45741  53.0532 220.7026 0001590 101.4724  98.1653 15.22633109  5834
STARLINK-1500,45744,53.0358,0.0002338,15.30333517,473.2142201945062,476.4186612233807,1 45744U 20038Q   25356.72560903  .00017741  00000+0  60713-3 0  9999,2 45744  53.0358 192.5488 0002338  68.3211 291.8037 15.30333517305014
STARLINK-1504,45746,53.0266,0.0001619,15.46361108,426.2798460128188,428.48347295476015,1 45746U 20038S   25355.74297058  .00117290  00000+0  23101-2 0  9999,2 45746  53.0266 156.5643 0001619 124.5919 235.5240 15.46361108305428
STARLINK-1506,45747,53.0698,0.0003059,15.2348551,493.2343271759182,497.4395185219173,1 45747U 20038T   25356.84263506  .00011920  00000+0  50633-3 0  9997,2 45747  53.0698 197.0906 0003059  62.4939 297.6368 15.23485510304969
STARLINK-1464,45751,53.0539,0.0001448,15.06399579,546.2100575849172,548.2156389009679,1 45751U 20038X   25356.80243111  .00000787  00000+0  71706-4 0  9992,2 45751  53.0539 201.7779 0001448 100.2194 259.8959 15.06399579304891
STARLINK-1477,45754,53.0505,0.0007033,15.09460952,532.9820269311558,542.7100486721283,1 45754U 20038AA  25356.82190160  .00019404  00000+0  12126-2 0  9997,2 45754  53.0505 201.0387 0007033 121.9560 238.2115 15.09460952304902
STARLINK-1478,45755,53.0533,0.0001565,15.06397675,546.1348655730762,548.3025019020852,1 45755U 20038AB  25356.83560881  .00001094  00000+0  92319-4 0  9990,2 45755  53.0533 201.6263 0001565  96.9545 263.1622 15.06397675304886
STARLINK-1484,45756,53.0135,0.0001845,15.71551778,353.2192702989123,355.70359912132153,1 45756U 20038AC  25356.45689555  .00096380  00000+0  73253-3 0  9996,2 45756  53.0135  86.5259 0001845  16.2924 343.8152 15.71551778306465
STARLINK-1493,45759,53.054,0.0001508,15.06397215,546.175749725603,548.2644374250249,1 45759U 20038AF  25356.82454854  .00001144  00000+0  95708-4 0  9996,2 45759  53.0540 201.6758 0001508  92.4614 267.6548 15.06397215304888
STARLINK-1494,45760,53.0518,0.00044,15.5612469,395.90337380312667,401.86715339509465,1 45760U 20038AG  25356.50770488  .00041833  00000+0  59159-3 0  9995,2 45760  53.0518 170.7075 0004400 166.2529 193.8602 15.56124690305301
STARLINK-1502,45764,53.0534,0.0001545,15.06397343,546.1497336622224,548.2896688829151,1 45764U 20038AL  25356.85771997  .00000611  00000+0  59898-4 0  9993,2 45764  53.0534 201.5311 0001545  91.7105 268.4061 15.06397343304903
